{
    "links": {
        "self": "http://www.neowsapp.com/rest/v1/neo/3656409?api_key=iIulBulltgU6a56xZRHN4H3l9WmuAYTsLGpBGhQ2"
    },
    "id": "3656409",
    "neo_reference_id": "3656409",
    "name": "(2014 AA53)",
    "designation": "2014 AA53",
    "nasa_jpl_url": "http://ssd.jpl.nasa.gov/sbdb.cgi?sstr=3656409",
    "absolute_magnitude_h": 19.8,
    "estimated_diameter": {
        "kilometers": {
            "estimated_diameter_min": 0.2914439045,
            "estimated_diameter_max": 0.6516883822
        },
        "meters": {
            "estimated_diameter_min": 291.4439045349,
            "estimated_diameter_max": 651.6883821679
        },
        "miles": {
            "estimated_diameter_min": 0.1810947904,
            "estimated_diameter_max": 0.4049402617
        },
        "feet": {
            "estimated_diameter_min": 956.1808197541,
            "estimated_diameter_max": 2138.0853117517
        }
    },
    "is_potentially_hazardous_asteroid": false,
    "close_approach_data": [
        {
            "close_approach_date": "2013-12-26",
            "close_approach_date_full": "2013-Dec-26 07:11",
            "epoch_date_close_approach": 1388041860000,
            "relative_velocity": {
                "kilometers_per_second": "29.9988182485",
                "kilometers_per_hour": "107995.7456945431",
                "miles_per_hour": "67104.3565400343"
            },
            "miss_distance": {
                "astronomical": "0.4802252019",
                "lunar": "186.8076035391",
                "kilometers": "71840667.324559953",
                "miles": "44639720.7041272314"
            },
            "orbiting_body": "Earth"
        },
        {
            "close_approach_date": "2170-12-22",
            "close_approach_date_full": "2170-Dec-22 06:30",
            "epoch_date_close_approach": 6342129000000,
            "relative_velocity": {
                "kilometers_per_second": "25.6973477372",
                "kilometers_per_hour": "92510.4518537418",
                "miles_per_hour": "57482.397153232"
            },
            "miss_distance": {
                "astronomical": "0.3464063328",
                "lunar": "134.7520634592",
                "kilometers": "51821649.541391136",
                "miles": "32200479.8689282368"
            },
            "orbiting_body": "Earth"
        }
    ],
    "orbital_data": {
        "orbit_id": "13",
        "orbit_determination_date": "2017-04-06 08:42:52",
        "first_observation_date": "2014-01-13",
        "last_observation_date": "2014-02-10",
        "data_arc_in_days": 28,
        "observations_used": 44,
        "orbit_uncertainty": "8",
        "minimum_orbit_intersection": ".140024",
        "jupiter_tisserand_invariant": "3.170",
        "epoch_osculation": "2456688.5",
        "eccentricity": ".6713411170732339",
        "semi_major_axis": "2.373870895218068",
        "inclination": "12.44437250853162",
        "ascending_node_longitude": "23.94500767979891",
        "orbital_period": "1335.931132040846",
        "perihelion_distance": ".7801937566347326",
        "perihelion_argument": "344.8460494136226",
        "aphelion_distance": "3.967548033801403",
        "perihelion_time": "2456615.532442393566",
        "mean_anomaly": "19.66293030254279",
        "mean_motion": ".2694749687059416",
        "equinox": "J2000",
        "orbit_class": {
            "orbit_class_type": "APO",
            "orbit_class_description": "Near-Earth asteroid orbits which cross the Earth’s orbit similar to that of 1862 Apollo",
            "orbit_class_range": "a (semi-major axis) > 1.0 AU; q (perihelion) < 1.017 AU"
        }
    },
    "is_sentry_object": false
}